{"type": "FeatureCollection", "features": [ {"type": "Feature", "properties": {"norad_id": 33867, "name": "IRIDIUM 33 DEB", "group": "iridium-33-debris", "lat": 19.817228721786822, "lon": 171.11481309508954, "alt_km": 384.6165400905247, "timestamp": "2025-12-08T05:48:09.418529+00:00", "meta": {"OBJECT_NAME": "IRIDIUM 33 DEB", "OBJECT_ID": "1997-051AL", "EPOCH": "2025-12-06T23:51:25.855200", "MEAN_MOTION": 15.58581253, "ECCENTRICITY": 0.00124601, "INCLINATION": 86.3623, "RA_OF_ASC_NODE": 353.0684, "ARG_OF_PERICENTER": 93.0935, "MEAN_ANOMALY": 267.1755, "EPHEMERIS_TYPE": 0, "CLASSIFICATION_TYPE": "U", "NORAD_CAT_ID": 33867, "ELEMENT_SET_NO": 999, "REV_AT_EPOCH": 89421, "BSTAR": 0.0084503515, "MEAN_MOTION_DOT": 0.0070536, "MEAN_MOTION_DDOT": 0}, "tle": {"line1": "1 33867U 97051AL  25340.99404925  .00705360  00000+0  84504-2 0  9998", "line2": "2 33867  86.3623 353.0684 0012460  93.0935 267.1755 15.58581253894218"}}, "geometry": {"type": "Point", "coordinates": [171.11481309508954, 19.817228721786822]}}, {"type": "Feature", "properties": {"norad_id": 33870, "name": "IRIDIUM 33 DEB", "group": "iridium-33-debris", "lat": -30.560985187686665, "lon": 58.043693248579416, "alt_km": 756.2092911438585, "timestamp": "2025-12-08T05:48:09.418540+00:00", "meta": {"OBJECT_NAME": "IRIDIUM 33 DEB", "OBJECT_ID": "1997-051AP", "EPOCH": "2025-12-07T17:13:05.610720", "MEAN_MOTION": 14.4581045, "ECCENTRICITY": 0.0020926, "INCLINATION": 86.375, "RA_OF_ASC_NODE": 60.4136, "ARG_OF_PERICENTER": 194.7359, "MEAN_ANOMALY": 287.1202, "EPHEMERIS_TYPE": 0, "CLASSIFICATION_TYPE": "U", "NORAD_CAT_ID": 33870, "ELEMENT_SET_NO": 999, "REV_AT_EPOCH": 88064, "BSTAR": 0.0014263854, "MEAN_MOTION_DOT": 5.092e-05, "MEAN_MOTION_DDOT": 0}, "tle": {"line1": "1 33870U 97051AP  25341.71742605  .00005092  00000+0  14264-2 0  9994", "line2": "2 33870  86.3750  60.4136 0020926 194.7359 287.1202 14.45810450880649"}}, "geometry": {"type": "Point", "coordinates": [58.043693248579416, -30.560985187686665]}}, {"type": "Feature", "properties": {"norad_id": 33881, "name": "IRIDIUM 33 DEB", "group": "iridium-33-debris", "lat": 24.644826458986888, "lon": 110.35777355838646, "alt_km": 745.8602679820133, "timestamp": "2025-12-08T05:48:09.418550+00:00", "meta": {"OBJECT_NAME": "IRIDIUM 33 DEB", "OBJECT_ID": "1997-051BA", "EPOCH": "2025-12-06T21:17:41.557056", "MEAN_MOTION": 14.5641101, "ECCENTRICITY": 0.00613255, "INCLINATION": 86.3871, "RA_OF_ASC_NODE": 109.2851, "ARG_OF_PERICENTER": 193.6863, "MEAN_ANOMALY": 294.0884, "EPHEMERIS_TYPE": 0, "CLASSIFICATION_TYPE": "U", "NORAD_CAT_ID": 33881, "ELEMENT_SET_NO": 999, "REV_AT_EPOCH": 87415, "BSTAR": 0.0034816838, "MEAN_MOTION_DOT": 0.00015893, "MEAN_MOTION_DDOT": 0}, "tle": {"line1": "1 33881U 97051BA  25340.88728654  .00015893  00000+0  34817-2 0  9997", "line2": "2 33881  86.3871 109.2851 0061325 193.6863 294.0884 14.56411010874150"}}, "geometry": {"type": "Point", "coordinates": [110.35777355838646, 24.644826458986888]}}, {"type": "Feature", "properties": {"norad_id": 33884, "name": "IRIDIUM 33 DEB", "group": "iridium-33-debris", "lat": -5.588225579873313, "lon": 11.49228099712153, "alt_km": 634.7385979417886, "timestamp": "2025-12-08T05:48:09.418560+00:00", "meta": {"OBJECT_NAME": "IRIDIUM 33 DEB", "OBJECT_ID": "1997-051BD", "EPOCH": "2025-12-07T20:51:21.594816", "MEAN_MOTION": 14.77290665, "ECCENTRICITY": 0.00101434, "INCLINATION": 86.3689, "RA_OF_ASC_NODE": 12.0165, "ARG_OF_PERICENTER": 342.3655, "MEAN_ANOMALY": 190.9123, "EPHEMERIS_TYPE": 0, "CLASSIFICATION_TYPE": "U", "NORAD_CAT_ID": 33884, "ELEMENT_SET_NO": 999, "REV_AT_EPOCH": 88775, "BSTAR": 0.002278389, "MEAN_MOTION_DOT": 0.00016221, "MEAN_MOTION_DDOT": 0}, "tle": {"line1": "1 33884U 97051BD  25341.86899994  .00016221  00000+0  22784-2 0  9991", "line2": "2 33884  86.3689  12.0165 0010143 342.3655 190.9123 14.77290665887757"}}, "geometry": {"type": "Point", "coordinates": [11.49228099712153, -5.588225579873313]}}, {"type": "Feature", "properties": {"norad_id": 33886, "name": "IRIDIUM 33 DEB", "group": "iridium-33-debris", "lat": -48.05292785124328, "lon": -106.84247714458805, "alt_km": 771.122548598013, "timestamp": "2025-12-08T05:48:09.418571+00:00", "meta": {"OBJECT_NAME": "IRIDIUM 33 DEB", "OBJECT_ID": "1997-051BF", "EPOCH": "2025-12-07T19:15:20.467008", "MEAN_MOTION": 14.36043091, "ECCENTRICITY": 0.00120786, "INCLINATION": 86.3831, "RA_OF_ASC_NODE": 69.3067, "ARG_OF_PERICENTER": 260.6757, "MEAN_ANOMALY": 217.0505, "EPHEMERIS_TYPE": 0, "CLASSIFICATION_TYPE": "U", "NORAD_CAT_ID": 33886, "ELEMENT_SET_NO": 999, "REV_AT_EPOCH": 87981, "BSTAR": 0.0003813438, "MEAN_MOTION_DOT": 1.128e-05, "MEAN_MOTION_DDOT": 0}, "tle": {"line1": "1 33886U 97051BF  25341.80232022  .00001128  00000+0  38134-3 0  9997", "line2": "2 33886  86.3831  69.3067 0012078 260.6757 217.0505 14.36043091879815"}}, "geometry": {"type": "Point", "coordinates": [-106.84247714458805, -48.05292785124328]}}, {"type": "Feature", "properties": {"norad_id": 33887, "name": "IRIDIUM 33 DEB", "group": "iridium-33-debris", "lat": 34.37915514370312, "lon": -177.20336852953153, "alt_km": 766.2144803264937, "timestamp": "2025-12-08T05:48:09.418582+00:00", "meta": {"OBJECT_NAME": "IRIDIUM 33 DEB", "OBJECT_ID": "1997-051BG", "EPOCH": "2025-12-07T19:57:20.850048", "MEAN_MOTION": 14.3721476, "ECCENTRICITY": 0.00041294, "INCLINATION": 86.3048, "RA_OF_ASC_NODE": 5.5075, "ARG_OF_PERICENTER": 249.5792, "MEAN_ANOMALY": 294.4563, "EPHEMERIS_TYPE": 0, "CLASSIFICATION_TYPE": "U", "NORAD_CAT_ID": 33887, "ELEMENT_SET_NO": 999, "REV_AT_EPOCH": 88094, "BSTAR": 0.00026272888, "MEAN_MOTION_DOT": 8.01e-06, "MEAN_MOTION_DDOT": 0}, "tle": {"line1": "1 33887U 97051BG  25341.83149132  .00000801  00000+0  26273-3 0  9998", "line2": "2 33887  86.3048   5.5075 0004129 249.5792 294.4563 14.37214760880943"}}, "geometry": {"type": "Point", "coordinates": [-177.20336852953153, 34.37915514370312]}}, {"type": "Feature", "properties": {"norad_id": 33953, "name": "IRIDIUM 33 DEB", "group": "iridium-33-debris", "lat": 68.33810439606316, "lon": 64.89231242397167, "alt_km": 693.1573890535847, "timestamp": "2025-12-08T05:48:09.418592+00:00", "meta": {"OBJECT_NAME": "IRIDIUM 33 DEB", "OBJECT_ID": "1997-051BN", "EPOCH": "2025-12-07T23:41:46.639968", "MEAN_MOTION": 14.55250964, "ECCENTRICITY": 0.00185069, "INCLINATION": 86.3842, "RA_OF_ASC_NODE": 55.8419, "ARG_OF_PERICENTER": 117.3038, "MEAN_ANOMALY": 59.4423, "EPHEMERIS_TYPE": 0, "CLASSIFICATION_TYPE": "U", "NORAD_CAT_ID": 33953, "ELEMENT_SET_NO": 999, "REV_AT_EPOCH": 88234, "BSTAR": 0.0016064957, "MEAN_MOTION_DOT": 6.991e-05, "MEAN_MOTION_DDOT": 0}, "tle": {"line1": "1 33953U 97051BN  25341.98734537  .00006991  00000+0  16065-2 0  9990", "line2": "2 33953  86.3842  55.8419 0018506 117.3038  59.4423 14.55250964882344"}}, "geometry": {"type": "Point", "coordinates": [64.89231242397167, 68.33810439606316]}}, {"type": "Feature", "properties": {"norad_id": 33960, "name": "IRIDIUM 33 DEB", "group": "iridium-33-debris", "lat": 66.95491208169811, "lon": 102.7742617701829, "alt_km": 604.1089542940917, "timestamp": "2025-12-08T05:48:09.418603+00:00", "meta": {"OBJECT_NAME": "IRIDIUM 33 DEB", "OBJECT_ID": "1997-051BV", "EPOCH": "2025-12-07T21:27:16.987104", "MEAN_MOTION": 14.84797874, "ECCENTRICITY": 0.00072802, "INCLINATION": 86.2539, "RA_OF_ASC_NODE": 291.7979, "ARG_OF_PERICENTER": 69.0965, "MEAN_ANOMALY": 345.5292, "EPHEMERIS_TYPE": 0, "CLASSIFICATION_TYPE": "U", "NORAD_CAT_ID": 33960, "ELEMENT_SET_NO": 999, "REV_AT_EPOCH": 88795, "BSTAR": 0.0040221347, "MEAN_MOTION_DOT": 0.00034297, "MEAN_MOTION_DDOT": 0}, "tle": {"line1": "1 33960U 97051BV  25341.89394661  .00034297  00000+0  40221-2 0  9999", "line2": "2 33960  86.2539 291.7979 0007280  69.0965 345.5292 14.84797874887958"}}, "geometry": {"type": "Point", "coordinates": [102.7742617701829, 66.95491208169811]}}, {"type": "Feature", "properties": {"norad_id": 33966, "name": "IRIDIUM 33 DEB", "group": "iridium-33-debris", "lat": -72.42289861286953, "lon": 36.47019632676348, "alt_km": 733.9111469948448, "timestamp": "2025-12-08T05:48:09.418614+00:00", "meta": {"OBJECT_NAME": "IRIDIUM 33 DEB", "OBJECT_ID": "1997-051CB", "EPOCH": "2025-12-07T22:39:31.260384", "MEAN_MOTION": 14.4956335, "ECCENTRICITY": 0.00068631, "INCLINATION": 86.3925, "RA_OF_ASC_NODE": 48.0853, "ARG_OF_PERICENTER": 204.7309, "MEAN_ANOMALY": 330.1013, "EPHEMERIS_TYPE": 0, "CLASSIFICATION_TYPE": "U", "NORAD_CAT_ID": 33966, "ELEMENT_SET_NO": 999, "REV_AT_EPOCH": 88372, "BSTAR": 0.00079663451, "MEAN_MOTION_DOT": 3.076e-05, "MEAN_MOTION_DDOT": 0}, "tle": {"line1": "1 33966U 97051CB  25341.94411181  .00003076  00000+0  79663-3 0  9992", "line2": "2 33966  86.3925  48.0853 0006863 204.7309 330.1013 14.49563350883727"}}, "geometry": {"type": "Point", "coordinates": [36.47019632676348, -72.42289861286953]}}, {"type": "Feature", "properties": {"norad_id": 34071, "name": "IRIDIUM 33 DEB", "group": "iridium-33-debris", "lat": -4.5385846395728215, "lon": 19.492754377619388, "alt_km": 734.9923182579414, "timestamp": "2025-12-08T05:48:09.418624+00:00", "meta": {"OBJECT_NAME": "IRIDIUM 33 DEB", "OBJECT_ID": "1997-051CE", "EPOCH": "2025-12-07T19:52:56.224128", "MEAN_MOTION": 14.4943314, "ECCENTRICITY": 0.00097588, "INCLINATION": 86.3456, "RA_OF_ASC_NODE": 19.963, "ARG_OF_PERICENTER": 120.799, "MEAN_ANOMALY": 239.4176, "EPHEMERIS_TYPE": 0, "CLASSIFICATION_TYPE": "U", "NORAD_CAT_ID": 34071, "ELEMENT_SET_NO": 999, "REV_AT_EPOCH": 88263, "BSTAR": 0.0010378873, "MEAN_MOTION_DOT": 3.992e-05, "MEAN_MOTION_DDOT": 0}, "tle": {"line1": "1 34071U 97051CE  25341.82842852  .00003992  00000+0  10379-2 0  9995", "line2": "2 34071  86.3456  19.9630 0009758 120.7990 239.4176 14.49433140882636"}}, "geometry": {"type": "Point", "coordinates": [19.492754377619388, -4.5385846395728215]}}]}